NORAD_CAT_ID,OBJECT_NAME,OBJECT_TYPE,EPOCH,MEAN_MOTION,ECCENTRICITY,INCLINATION,RA_OF_ASC_NODE,ARG_OF_PERICENTER,MEAN_ANOMALY,BSTAR,MEAN_MOTION_DOT,MEAN_MOTION_DDOT,TLE_LINE0,TLE_LINE1,TLE_LINE2,SEMIMAJOR_AXIS,PERIOD,APOGEE,PERIGEE,DECAYED
54180.0,STARLINK-5228,PAYLOAD,2023-09-08 21:49:36,15.08833787,0.0001259,53.2168,141.4058,87.1973,272.9164,-0.00011542,-2.124e-05,0.0,0 STARLINK-5228,1 54180U 22141Z   23251.90945017 -.00002124  00000-0 -11542-3 0  9993,2 54180  53.2168 141.4058 0001259  87.1973 272.9164 15.08833787 48069,6917.899,95.438,540.635,538.893,0.0
54180.0,STARLINK-5228,PAYLOAD,2023-09-09 02:35:45,15.08834819,0.0001159,53.2164,140.5125,83.8809,276.2315,-0.00012714,-2.31e-05,0.0,0 STARLINK-5228,1 54180U 22141Z   23252.10817001 -.00002310  00000-0 -12714-3 0  9996,2 54180  53.2164 140.5125 0001159  83.8809 276.2315 15.08834819 48095,6917.896,95.438,540.563,538.959,0.0
54180.0,STARLINK-5228,PAYLOAD,2023-09-09 16:54:13,15.08847134,0.0001067,53.2165,137.8363,100.3767,259.7346,9.7928e-06,-1.32e-06,0.0,0 STARLINK-5228,1 54180U 22141Z   23252.70432116 -.00000132  00000-0  97928-5 0  9993,2 54180  53.2165 137.8363 0001067 100.3767 259.7346 15.08847134 48415,6917.859,95.437,540.462,538.985,0.0
54180.0,STARLINK-5228,PAYLOAD,2023-09-09 23:15:45,15.08847653,0.0001173,53.2166,136.6477,87.2115,272.9011,0.00028812,4.301e-05,0.0,0 STARLINK-5228,1 54180U 22141Z   23252.96927358  .00004301  00000-0  28812-3 0  9993,2 54180  53.2166 136.6477 0001173  87.2115 272.9011 15.08847653 48453,6917.857,95.437,540.533,538.911,0.0
54180.0,STARLINK-5228,PAYLOAD,2023-09-10 02:26:31,15.0885034,0.0001164,53.2165,136.0524,85.9777,274.1348,0.00031852,4.786e-05,0.0,0 STARLINK-5228,1 54180U 22141Z   23253.10175237  .00004786  00000-0  31852-3 0  9996,2 54180  53.2165 136.0524 0001164  85.9777 274.1348 15.08850340 48249,6917.849,95.437,540.519,538.909,0.0
54180.0,STARLINK-5228,PAYLOAD,2023-09-10 15:09:37,15.08836639,0.0001269,53.216,133.6744,92.9346,267.1791,0.00017897,2.561e-05,0.0,0 STARLINK-5228,1 54180U 22141Z   23253.63168735  .00002561  00000-0  17897-3 0  9991,2 54180  53.2160 133.6744 0001269  92.9346 267.1791 15.08836639 48550,6917.891,95.438,540.634,538.878,0.0
54180.0,STARLINK-5228,PAYLOAD,2023-09-10 23:06:32,15.08854929,0.0001131,53.2162,132.1876,95.512,264.6001,0.00036934,5.597e-05,0.0,0 STARLINK-5228,1 54180U 22141Z   23253.96288030  .00005597  00000-0  36934-3 0  9993,2 54180  53.2162 132.1876 0001131  95.5120 264.6001 15.08854929 48603,6917.835,95.437,540.482,538.917,0.0
54180.0,STARLINK-5228,PAYLOAD,2023-09-11 08:38:51,15.08850781,0.0001132,53.2162,130.4039,98.825,261.2871,0.00054631,8.42e-05,0.0,0 STARLINK-5228,1 54180U 22141Z   23254.36031983  .00008420  00000-0  54631-3 0  9993,2 54180  53.2162 130.4039 0001132  98.8250 261.2871 15.08850781 48437,6917.847,95.437,540.496,538.929,0.0
54180.0,STARLINK-5228,PAYLOAD,2023-09-11 22:57:19,15.08842404,0.0001298,53.2166,127.7293,108.3101,251.8033,0.00017994,2.577e-05,0.0,0 STARLINK-5228,1 54180U 22141Z   23254.95648132  .00002577  00000-0  17994-3 0  9996,2 54180  53.2166 127.7293 0001298 108.3101 251.8033 15.08842404 48750,6917.873,95.437,540.636,538.84,0.0
54180.0,STARLINK-5228,PAYLOAD,2023-09-12 02:08:06,15.08851079,0.0001272,53.2166,127.1332,95.4992,264.6145,0.00027682,4.122e-05,0.0,0 STARLINK-5228,1 54180U 22141Z   23255.08895852  .00004122  00000-0  27682-3 0  9997,2 54180  53.2166 127.1332 0001272  95.4992 264.6145 15.08851079 48545,6917.847,95.437,540.591,538.832,0.0
54180.0,STARLINK-5228,PAYLOAD,2023-09-12 21:12:43,15.08842652,0.0001411,53.2166,123.565,91.5226,268.5927,0.00011795,1.59e-05,0.0,0 STARLINK-5228,1 54180U 22141Z   23255.88384242  .00001590  00000-0  11795-3 0  9995,2 54180  53.2166 123.5650 0001411  91.5226 268.5927 15.08842652 48661,6917.872,95.437,540.713,538.761,0.0
54180.0,STARLINK-5228,PAYLOAD,2023-09-12 22:48:06,15.08847437,0.0001278,53.2164,123.2677,90.6919,269.422,0.00021195,3.088e-05,0.0,0 STARLINK-5228,1 54180U 22141Z   23255.95008027  .00003088  00000-0  21195-3 0  9996,2 54180  53.2164 123.2677 0001278  90.6919 269.4220 15.08847437 48678,6917.858,95.437,540.607,538.839,0.0
54180.0,STARLINK-5228,PAYLOAD,2023-09-13 21:03:30,15.08851731,0.000127,53.2161,119.1038,88.8877,271.2261,0.00024232,3.572e-05,0.0,0 STARLINK-5228,1 54180U 22141Z   23256.87743627  .00003572  00000-0  24232-3 0  9993,2 54180  53.2161 119.1038 0001270  88.8877 271.2261 15.08851731 48818,6917.845,95.437,540.588,538.831,0.0
54180.0,STARLINK-5228,PAYLOAD,2023-09-14 00:14:16,15.08854638,0.000131,53.2159,118.5074,71.6234,288.4901,0.00042188,6.435e-05,0.0,0 STARLINK-5228,1 54180U 22141Z   23257.00991571  .00006435  00000-0  42188-3 0  9993,2 54180  53.2159 118.5074 0001310  71.6234 288.4901 15.08854638 49068,6917.836,95.437,540.607,538.794,0.0
54180.0,STARLINK-5228,PAYLOAD,2023-09-14 14:32:45,15.08832531,0.0001084,53.2158,115.8321,82.2567,277.8549,-5.3581e-05,-1.14e-05,0.0,0 STARLINK-5228,1 54180U 22141Z   23257.60608440 -.00001140  00000-0 -53581-4 0  9999,2 54180  53.2158 115.8321 0001084  82.2567 277.8549 15.08832531 49155,6917.903,95.438,540.518,539.018,0.0
54180.0,STARLINK-5228,PAYLOAD,2023-09-14 20:54:18,15.08830852,0.0001335,53.2159,114.6425,82.6787,277.4357,-0.00011363,-2.095e-05,0.0,0 STARLINK-5228,1 54180U 22141Z   23257.87104587 -.00002095  00000-0 -11363-3 0  9992,2 54180  53.2159 114.6425 0001335  82.6787 277.4357 15.08830852 48960,6917.908,95.438,540.697,538.85,0.0
54180.0,STARLINK-5228,PAYLOAD,2023-09-14 22:29:41,15.0883307,0.0001347,53.2159,114.3449,80.3308,279.7836,-5.6404e-05,-1.185e-05,0.0,0 STARLINK-5228,1 54180U 22141Z   23257.93728672 -.00001185  00000-0 -56404-4 0  9991,2 54180  53.2159 114.3449 0001347  80.3308 279.7836 15.08833070 48973,6917.902,95.438,540.698,538.835,0.0
54180.0,STARLINK-5228,PAYLOAD,2023-09-15 17:34:19,15.08839968,0.0001165,53.2155,110.7762,95.8049,264.3076,0.00016267,2.302e-05,0.0,0 STARLINK-5228,1 54180U 22141Z   23258.73216716  .00002302  00000-0  16267-3 0  9993,2 54180  53.2155 110.7762 0001165  95.8049 264.3076 15.08839968 49326,6917.88,95.438,540.551,538.94,0.0
54180.0,STARLINK-5228,PAYLOAD,2023-09-15 23:55:51,15.08850512,0.0001218,53.2154,109.5865,84.2864,275.8267,0.00039881,6.067e-05,0.0,0 STARLINK-5228,1 54180U 22141Z   23258.99712453  .00006067  00000-0  39881-3 0  9999,2 54180  53.2154 109.5865 0001218  84.2864 275.8267 15.08850512 49362,6917.848,95.437,540.556,538.871,0.0
54180.0,STARLINK-5228,PAYLOAD,2023-09-16 17:25:06,15.08843678,0.00012,53.2158,106.3157,69.3849,290.7271,0.00029985,4.488e-05,0.0,0 STARLINK-5228,1 54180U 22141Z   23259.72576922  .00004488  00000-0  29985-3 0  9999,2 54180  53.2158 106.3157 0001200  69.3849 290.7271 15.08843678 49471,6917.869,95.437,540.564,538.904,0.0
54180.0,STARLINK-5228,PAYLOAD,2023-09-16 20:35:52,15.08849732,0.0001255,53.2157,105.721,88.6063,271.5072,0.00039825,6.058e-05,0.0,0 STARLINK-5228,1 54180U 22141Z   23259.85824706  .00006058  00000-0  39825-3 0  9998,2 54180  53.2157 105.7210 0001255  88.6063 271.5072 15.08849732 49265,6917.851,95.437,540.584,538.847,0.0
54180.0,STARLINK-5228,PAYLOAD,2023-09-17 22:02:02,15.08848002,0.0001346,53.2154,100.9632,90.9428,269.1718,0.00017231,2.456e-05,0.0,0 STARLINK-5228,1 54180U 22141Z   23260.91808531  .00002456  00000-0  17231-3 0  9990,2 54180  53.2154 100.9632 0001346  90.9428 269.1718 15.08848002 49651,6917.856,95.437,540.652,538.79,0.0
54180.0,STARLINK-5228,PAYLOAD,2023-09-18 05:58:58,15.08844824,0.0001313,53.2154,99.4759,90.7135,269.4008,4.5769e-05,4.41e-06,0.0,0 STARLINK-5228,1 54180U 22141Z   23261.24928567  .00000441  00000-0  45769-4 0  9999,2 54180  53.2154  99.4759 0001313  90.7135 269.4008 15.08844824 49473,6917.866,95.437,540.639,538.822,0.0
54180.0,STARLINK-5228,PAYLOAD,2023-09-18 17:06:40,15.08838976,0.0001384,53.2156,97.3952,94.296,265.819,5.274e-05,5.52e-06,0.0,0 STARLINK-5228,1 54180U 22141Z   23261.71296885  .00000552  00000-0  52740-4 0  9992,2 54180  53.2156  97.3952 0001384  94.2960 265.8190 15.08838976 49776,6917.884,95.438,540.706,538.791,0.0
54180.0,STARLINK-5228,PAYLOAD,2023-09-18 20:17:26,15.08843689,0.00014,53.2165,96.8016,95.4992,264.616,9.0859e-05,1.159e-05,0.0,0 STARLINK-5228,1 54180U 22141Z   23261.84544671  .00001159  00000-0  90859-4 0  9992,2 54180  53.2165  96.8016 0001400  95.4992 264.6160 15.08843689 49566,6917.869,95.437,540.703,538.766,0.0
54180.0,STARLINK-5228,PAYLOAD,2023-09-18 21:52:49,15.08845239,0.000136,53.2159,96.5029,90.8995,269.2153,0.00010627,1.404e-05,0.0,0 STARLINK-5228,1 54180U 22141Z   23261.91168574  .00001404  00000-0  10627-3 0  9991,2 54180  53.2159  96.5029 0001360  90.8995 269.2153 15.08845239 49800,6917.864,95.437,540.67,538.789,0.0
54180.0,STARLINK-5228,PAYLOAD,2023-09-19 21:43:36,15.08855571,0.0001431,53.2161,92.0433,91.0884,269.0272,0.0003065,4.595e-05,0.0,0 STARLINK-5228,1 54180U 22141Z   23262.90527915  .00004595  00000-0  30650-3 0  9991,2 54180  53.2161  92.0433 0001431  91.0884 269.0272 15.08855571 49958,6917.833,95.437,540.688,538.708,0.0
54180.0,STARLINK-5228,PAYLOAD,2023-09-20 18:23:37,15.08834357,0.0001785,53.2161,88.1757,128.0949,232.0204,-0.00011763,-2.159e-05,0.0,0 STARLINK-5228,1 54180U 22141Z   23263.76640750 -.00002159  00000-0 -11763-3 0  9999,2 54180  53.2161  88.1757 0001785 128.0949 232.0204 15.08834357 50088,6917.898,95.438,540.997,538.528,0.0
54180.0,STARLINK-5228,PAYLOAD,2023-09-20 19:59:01,15.08831387,0.0001514,53.216,87.8787,80.134,279.9823,-0.0001044,-1.949e-05,0.0,0 STARLINK-5228,1 54180U 22141Z   23263.83265233 -.00001949  00000-0 -10440-3 0  9993,2 54180  53.2160  87.8787 0001514  80.1340 279.9823 15.08831387 49860,6917.907,95.438,540.819,538.724,0.0
54180.0,STARLINK-5228,PAYLOAD,2023-09-21 11:52:52,15.08836879,0.0001429,53.2161,84.9037,90.8153,269.3003,5.2689e-05,5.51e-06,0.0,0 STARLINK-5228,1 54180U 22141Z   23264.49505360  .00000551  00000-0  52689-4 0  9992,2 54180  53.2161  84.9037 0001429  90.8153 269.3003 15.08836879 49967,6917.89,95.438,540.743,538.766,0.0
